[{"OBJECT_NAME":"O3B FM10","OBJECT_ID":"2014-083A","EPOCH":"2026-04-26T23:41:48.886368","MEAN_MOTION":5.001153,"ECCENTRICITY":0.00026583,"INCLINATION":0.0386,"RA_OF_ASC_NODE":337.9177,"ARG_OF_PERICENTER":58.1762,"MEAN_ANOMALY":323.9226,"EPHEMERIS_TYPE":0,"CLASSIFICATION_TYPE":"U","NORAD_CAT_ID":40348,"ELEMENT_SET_NO":999,"REV_AT_EPOCH":20733,"BSTAR":0,"MEAN_MOTION_DOT":-2.7e-7,"MEAN_MOTION_DDOT":0},{"OBJECT_NAME":"O3B FM11","OBJECT_ID":"2014-083B","EPOCH":"2026-04-27T00:00:04.827168","MEAN_MOTION":5.00115571,"ECCENTRICITY":0.00029152,"INCLINATION":0.0578,"RA_OF_ASC_NODE":359.2663,"ARG_OF_PERICENTER":22.9299,"MEAN_ANOMALY":337.8151,"EPHEMERIS_TYPE":0,"CLASSIFICATION_TYPE":"U","NORAD_CAT_ID":40349,"ELEMENT_SET_NO":999,"REV_AT_EPOCH":20734,"BSTAR":0,"MEAN_MOTION_DOT":-2.7e-7,"MEAN_MOTION_DDOT":0},{"OBJECT_NAME":"O3B FM12","OBJECT_ID":"2014-083C","EPOCH":"2026-04-26T19:51:11.965248","MEAN_MOTION":5.00115897,"ECCENTRICITY":0.0002542,"INCLINATION":0.057,"RA_OF_ASC_NODE":358.9586,"ARG_OF_PERICENTER":33.4206,"MEAN_ANOMALY":327.6349,"EPHEMERIS_TYPE":0,"CLASSIFICATION_TYPE":"U","NORAD_CAT_ID":40350,"ELEMENT_SET_NO":999,"REV_AT_EPOCH":20735,"BSTAR":0,"MEAN_MOTION_DOT":-2.7e-7,"MEAN_MOTION_DDOT":0},{"OBJECT_NAME":"O3B FM9","OBJECT_ID":"2014-083D","EPOCH":"2026-04-26T20:29:50.187840","MEAN_MOTION":5.00115935,"ECCENTRICITY":0.00027079,"INCLINATION":0.059,"RA_OF_ASC_NODE":359.0813,"ARG_OF_PERICENTER":36.2174,"MEAN_ANOMALY":324.7178,"EPHEMERIS_TYPE":0,"CLASSIFICATION_TYPE":"U","NORAD_CAT_ID":40351,"ELEMENT_SET_NO":999,"REV_AT_EPOCH":20750,"BSTAR":0,"MEAN_MOTION_DOT":-2.7e-7,"MEAN_MOTION_DDOT":0},{"OBJECT_NAME":"ASTRA 2G","OBJECT_ID":"2014-089A","EPOCH":"2026-04-27T05:04:38.648352","MEAN_MOTION":1.00271544,"ECCENTRICITY":0.00048012,"INCLINATION":0.0574,"RA_OF_ASC_NODE":31.8876,"ARG_OF_PERICENTER":13.083,"MEAN_ANOMALY":274.5736,"EPHEMERIS_TYPE":0,"CLASSIFICATION_TYPE":"U","NORAD_CAT_ID":40364,"ELEMENT_SET_NO":999,"REV_AT_EPOCH":4145,"BSTAR":0,"MEAN_MOTION_DOT":1.4e-6,"MEAN_MOTION_DDOT":0},{"OBJECT_NAME":"SES-9","OBJECT_ID":"2016-013A","EPOCH":"2026-04-27T00:21:02.702304","MEAN_MOTION":1.00272708,"ECCENTRICITY":0.00021902,"INCLINATION":0.016,"RA_OF_ASC_NODE":282.7094,"ARG_OF_PERICENTER":137.1942,"MEAN_ANOMALY":268.6545,"EPHEMERIS_TYPE":0,"CLASSIFICATION_TYPE":"U","NORAD_CAT_ID":41380,"ELEMENT_SET_NO":999,"REV_AT_EPOCH":3692,"BSTAR":0,"MEAN_MOTION_DOT":-3.56e-6,"MEAN_MOTION_DDOT":0},{"OBJECT_NAME":"SES-10","OBJECT_ID":"2017-017A","EPOCH":"2026-04-26T23:44:38.893056","MEAN_MOTION":1.00272084,"ECCENTRICITY":0.00029246,"INCLINATION":0.0295,"RA_OF_ASC_NODE":22.1693,"ARG_OF_PERICENTER":27.9632,"MEAN_ANOMALY":94.1211,"EPHEMERIS_TYPE":0,"CLASSIFICATION_TYPE":"U","NORAD_CAT_ID":42432,"ELEMENT_SET_NO":999,"REV_AT_EPOCH":3324,"BSTAR":0,"MEAN_MOTION_DOT":-2.84e-6,"MEAN_MOTION_DDOT":0},{"OBJECT_NAME":"SES-15","OBJECT_ID":"2017-026A","EPOCH":"2026-04-27T05:56:51.547776","MEAN_MOTION":1.00270096,"ECCENTRICITY":6.512e-5,"INCLINATION":0.0244,"RA_OF_ASC_NODE":328.856,"ARG_OF_PERICENTER":43.7721,"MEAN_ANOMALY":162.6676,"EPHEMERIS_TYPE":0,"CLASSIFICATION_TYPE":"U","NORAD_CAT_ID":42709,"ELEMENT_SET_NO":999,"REV_AT_EPOCH":692,"BSTAR":0,"MEAN_MOTION_DOT":5.0e-7,"MEAN_MOTION_DDOT":0},{"OBJECT_NAME":"SES-11 (ECHOSTAR 105)","OBJECT_ID":"2017-063A","EPOCH":"2026-04-27T06:40:43.602816","MEAN_MOTION":1.00269709,"ECCENTRICITY":0.00030038,"INCLINATION":0.0205,"RA_OF_ASC_NODE":65.2292,"ARG_OF_PERICENTER":358.9053,"MEAN_ANOMALY":146.3617,"EPHEMERIS_TYPE":0,"CLASSIFICATION_TYPE":"U","NORAD_CAT_ID":42967,"ELEMENT_SET_NO":999,"REV_AT_EPOCH":3121,"BSTAR":0,"MEAN_MOTION_DOT":0,"MEAN_MOTION_DDOT":0},{"OBJECT_NAME":"SES-14","OBJECT_ID":"2018-012B","EPOCH":"2026-04-27T01:19:12.122688","MEAN_MOTION":1.00270027,"ECCENTRICITY":9.764e-5,"INCLINATION":0.0409,"RA_OF_ASC_NODE":44.9058,"ARG_OF_PERICENTER":345.9798,"MEAN_ANOMALY":156.4724,"EPHEMERIS_TYPE":0,"CLASSIFICATION_TYPE":"U","NORAD_CAT_ID":43175,"ELEMENT_SET_NO":999,"REV_AT_EPOCH":651,"BSTAR":0,"MEAN_MOTION_DOT":-2.89e-6,"MEAN_MOTION_DDOT":0},{"OBJECT_NAME":"O3B FM15","OBJECT_ID":"2018-024A","EPOCH":"2026-04-26T22:06:00.378144","MEAN_MOTION":5.00115706,"ECCENTRICITY":0.00026361,"INCLINATION":0.051,"RA_OF_ASC_NODE":4.167,"ARG_OF_PERICENTER":29.7949,"MEAN_ANOMALY":326.0536,"EPHEMERIS_TYPE":0,"CLASSIFICATION_TYPE":"U","NORAD_CAT_ID":43231,"ELEMENT_SET_NO":999,"REV_AT_EPOCH":14846,"BSTAR":0,"MEAN_MOTION_DOT":-2.7e-7,"MEAN_MOTION_DDOT":0},{"OBJECT_NAME":"O3B FM16","OBJECT_ID":"2018-024B","EPOCH":"2026-04-26T18:33:32.966208","MEAN_MOTION":5.00115962,"ECCENTRICITY":0.0002681,"INCLINATION":0.0487,"RA_OF_ASC_NODE":8.2697,"ARG_OF_PERICENTER":24.1687,"MEAN_ANOMALY":327.5766,"EPHEMERIS_TYPE":0,"CLASSIFICATION_TYPE":"U","NORAD_CAT_ID":43232,"ELEMENT_SET_NO":999,"REV_AT_EPOCH":14837,"BSTAR":0,"MEAN_MOTION_DOT":-2.7e-7,"MEAN_MOTION_DDOT":0},{"OBJECT_NAME":"O3B FM14","OBJECT_ID":"2018-024C","EPOCH":"2026-04-26T00:20:54.276576","MEAN_MOTION":5.00115703,"ECCENTRICITY":0.00028607,"INCLINATION":0.0471,"RA_OF_ASC_NODE":8.2311,"ARG_OF_PERICENTER":27.6841,"MEAN_ANOMALY":324.1024,"EPHEMERIS_TYPE":0,"CLASSIFICATION_TYPE":"U","NORAD_CAT_ID":43233,"ELEMENT_SET_NO":999,"REV_AT_EPOCH":14834,"BSTAR":0,"MEAN_MOTION_DOT":-2.7e-7,"MEAN_MOTION_DDOT":0},{"OBJECT_NAME":"O3B FM13","OBJECT_ID":"2018-024D","EPOCH":"2026-04-26T01:55:44.770656","MEAN_MOTION":5.00115553,"ECCENTRICITY":0.00035807,"INCLINATION":0.0556,"RA_OF_ASC_NODE":328.9915,"ARG_OF_PERICENTER":21.8257,"MEAN_ANOMALY":9.1746,"EPHEMERIS_TYPE":0,"CLASSIFICATION_TYPE":"U","NORAD_CAT_ID":43234,"ELEMENT_SET_NO":999,"REV_AT_EPOCH":14845,"BSTAR":0,"MEAN_MOTION_DOT":-2.7e-7,"MEAN_MOTION_DDOT":0},{"OBJECT_NAME":"SES-12","OBJECT_ID":"2018-049A","EPOCH":"2026-04-27T04:51:21.770784","MEAN_MOTION":1.00267712,"ECCENTRICITY":0.00011741,"INCLINATION":0.0151,"RA_OF_ASC_NODE":63.1819,"ARG_OF_PERICENTER":246.1967,"MEAN_ANOMALY":73.6621,"EPHEMERIS_TYPE":0,"CLASSIFICATION_TYPE":"U","NORAD_CAT_ID":43488,"ELEMENT_SET_NO":999,"REV_AT_EPOCH":2890,"BSTAR":0,"MEAN_MOTION_DOT":0,"MEAN_MOTION_DDOT":0},{"OBJECT_NAME":"O3B FM20","OBJECT_ID":"2019-020A","EPOCH":"2026-04-26T20:09:46.275552","MEAN_MOTION":5.0011551,"ECCENTRICITY":0.00025865,"INCLINATION":0.0532,"RA_OF_ASC_NODE":1.3271,"ARG_OF_PERICENTER":24.3542,"MEAN_ANOMALY":334.3301,"EPHEMERIS_TYPE":0,"CLASSIFICATION_TYPE":"U","NORAD_CAT_ID":44112,"ELEMENT_SET_NO":999,"REV_AT_EPOCH":12900,"BSTAR":0,"MEAN_MOTION_DOT":-2.7e-7,"MEAN_MOTION_DDOT":0},{"OBJECT_NAME":"O3B FM19","OBJECT_ID":"2019-020B","EPOCH":"2026-04-21T16:04:51.104352","MEAN_MOTION":5.00115966,"ECCENTRICITY":0.0003491,"INCLINATION":0.0716,"RA_OF_ASC_NODE":348.2754,"ARG_OF_PERICENTER":26.5306,"MEAN_ANOMALY":345.2041,"EPHEMERIS_TYPE":0,"CLASSIFICATION_TYPE":"U","NORAD_CAT_ID":44113,"ELEMENT_SET_NO":999,"REV_AT_EPOCH":12861,"BSTAR":0,"MEAN_MOTION_DOT":-2.2e-7,"MEAN_MOTION_DDOT":0}]
